[{"OBJECT_NAME":"TECHNOSAT","OBJECT_ID":"2017-042E","EPOCH":"2026-03-06T05:38:47.809248","MEAN_MOTION":15.04250058,"ECCENTRICITY":0.0019779,"INCLINATION":97.4151,"RA_OF_ASC_NODE":226.9329,"ARG_OF_PERICENTER":86.5675,"MEAN_ANOMALY":273.7813,"EPHEMERIS_TYPE":0,"CLASSIFICATION_TYPE":"U","NORAD_CAT_ID":42829,"ELEMENT_SET_NO":999,"REV_AT_EPOCH":47122,"BSTAR":0.00036623348,"MEAN_MOTION_DOT":5.057e-5,"MEAN_MOTION_DDOT":0},{"OBJECT_NAME":"FLYING LAPTOP","OBJECT_ID":"2017-042G","EPOCH":"2026-03-06T07:26:55.525632","MEAN_MOTION":15.00488681,"ECCENTRICITY":0.00188324,"INCLINATION":97.4264,"RA_OF_ASC_NODE":225.1346,"ARG_OF_PERICENTER":106.3478,"MEAN_ANOMALY":253.9819,"EPHEMERIS_TYPE":0,"CLASSIFICATION_TYPE":"U","NORAD_CAT_ID":42831,"ELEMENT_SET_NO":999,"REV_AT_EPOCH":47102,"BSTAR":0.00027262487,"MEAN_MOTION_DOT":3.389e-5,"MEAN_MOTION_DDOT":0},{"OBJECT_NAME":"HAWK-A","OBJECT_ID":"2018-099H","EPOCH":"2026-03-06T03:05:31.571232","MEAN_MOTION":15.23159876,"ECCENTRICITY":0.00343412,"INCLINATION":97.4056,"RA_OF_ASC_NODE":118.7423,"ARG_OF_PERICENTER":288.6008,"MEAN_ANOMALY":71.15,"EPHEMERIS_TYPE":0,"CLASSIFICATION_TYPE":"U","NORAD_CAT_ID":43765,"ELEMENT_SET_NO":999,"REV_AT_EPOCH":39740,"BSTAR":0.0003249947,"MEAN_MOTION_DOT":7.733e-5,"MEAN_MOTION_DDOT":0},{"OBJECT_NAME":"HAWK-B","OBJECT_ID":"2018-099AN","EPOCH":"2026-03-06T02:19:25.814784","MEAN_MOTION":15.21466985,"ECCENTRICITY":0.00315133,"INCLINATION":97.4104,"RA_OF_ASC_NODE":118.3322,"ARG_OF_PERICENTER":306.5962,"MEAN_ANOMALY":53.2375,"EPHEMERIS_TYPE":0,"CLASSIFICATION_TYPE":"U","NORAD_CAT_ID":43794,"ELEMENT_SET_NO":999,"REV_AT_EPOCH":39735,"BSTAR":0.00034557602,"MEAN_MOTION_DOT":7.803e-5,"MEAN_MOTION_DDOT":0},{"OBJECT_NAME":"HAWK-C","OBJECT_ID":"2018-099AT","EPOCH":"2026-03-06T03:10:50.841696","MEAN_MOTION":15.26323772,"ECCENTRICITY":0.00404761,"INCLINATION":97.4032,"RA_OF_ASC_NODE":119.1729,"ARG_OF_PERICENTER":290.4794,"MEAN_ANOMALY":69.2101,"EPHEMERIS_TYPE":0,"CLASSIFICATION_TYPE":"U","NORAD_CAT_ID":43799,"ELEMENT_SET_NO":999,"REV_AT_EPOCH":39818,"BSTAR":0.00033898017,"MEAN_MOTION_DOT":8.938e-5,"MEAN_MOTION_DDOT":0},{"OBJECT_NAME":"SALSAT","OBJECT_ID":"2020-068K","EPOCH":"2026-03-05T22:34:33.397248","MEAN_MOTION":15.28092628,"ECCENTRICITY":0.00085381,"INCLINATION":97.8854,"RA_OF_ASC_NODE":61.8531,"ARG_OF_PERICENTER":312.583,"MEAN_ANOMALY":47.4688,"EPHEMERIS_TYPE":0,"CLASSIFICATION_TYPE":"U","NORAD_CAT_ID":46495,"ELEMENT_SET_NO":999,"REV_AT_EPOCH":29958,"BSTAR":0.00040601098,"MEAN_MOTION_DOT":0.00011056,"MEAN_MOTION_DDOT":0},{"OBJECT_NAME":"HAWK-2C","OBJECT_ID":"2021-006CT","EPOCH":"2026-03-06T02:04:31.805472","MEAN_MOTION":15.33219899,"ECCENTRICITY":0.00065864,"INCLINATION":97.2418,"RA_OF_ASC_NODE":111.479,"ARG_OF_PERICENTER":197.2619,"MEAN_ANOMALY":162.8401,"EPHEMERIS_TYPE":0,"CLASSIFICATION_TYPE":"U","NORAD_CAT_ID":47502,"ELEMENT_SET_NO":999,"REV_AT_EPOCH":28369,"BSTAR":0.00024007215,"MEAN_MOTION_DOT":7.634e-5,"MEAN_MOTION_DDOT":0},{"OBJECT_NAME":"HAWK-2A","OBJECT_ID":"2021-006CW","EPOCH":"2026-03-06T02:09:38.834784","MEAN_MOTION":15.33238017,"ECCENTRICITY":0.00060826,"INCLINATION":97.2461,"RA_OF_ASC_NODE":112.0989,"ARG_OF_PERICENTER":200.7103,"MEAN_ANOMALY":159.3894,"EPHEMERIS_TYPE":0,"CLASSIFICATION_TYPE":"U","NORAD_CAT_ID":47505,"ELEMENT_SET_NO":999,"REV_AT_EPOCH":28369,"BSTAR":0.00024793194,"MEAN_MOTION_DOT":7.89e-5,"MEAN_MOTION_DDOT":0},{"OBJECT_NAME":"HAWK-2B","OBJECT_ID":"2021-006CZ","EPOCH":"2026-03-06T02:05:02.416992","MEAN_MOTION":15.33214288,"ECCENTRICITY":0.00066723,"INCLINATION":97.2334,"RA_OF_ASC_NODE":110.601,"ARG_OF_PERICENTER":198.7979,"MEAN_ANOMALY":161.3018,"EPHEMERIS_TYPE":0,"CLASSIFICATION_TYPE":"U","NORAD_CAT_ID":47508,"ELEMENT_SET_NO":999,"REV_AT_EPOCH":28369,"BSTAR":0.00025570703,"MEAN_MOTION_DOT":8.135e-5,"MEAN_MOTION_DDOT":0},{"OBJECT_NAME":"HAWK-3B","OBJECT_ID":"2021-059BE","EPOCH":"2026-03-06T02:08:30.400800","MEAN_MOTION":15.61234728,"ECCENTRICITY":0.0005299,"INCLINATION":97.6715,"RA_OF_ASC_NODE":252.6749,"ARG_OF_PERICENTER":352.2097,"MEAN_ANOMALY":7.9077,"EPHEMERIS_TYPE":0,"CLASSIFICATION_TYPE":"U","NORAD_CAT_ID":48931,"ELEMENT_SET_NO":999,"REV_AT_EPOCH":26172,"BSTAR":0.00043578675,"MEAN_MOTION_DOT":0.0003691,"MEAN_MOTION_DDOT":0},{"OBJECT_NAME":"HAWK-3C","OBJECT_ID":"2021-059BX","EPOCH":"2026-03-06T06:45:03.351456","MEAN_MOTION":15.612502,"ECCENTRICITY":0.00057491,"INCLINATION":97.6862,"RA_OF_ASC_NODE":258.3753,"ARG_OF_PERICENTER":352.6085,"MEAN_ANOMALY":7.5086,"EPHEMERIS_TYPE":0,"CLASSIFICATION_TYPE":"U","NORAD_CAT_ID":48948,"ELEMENT_SET_NO":999,"REV_AT_EPOCH":26175,"BSTAR":0.00046608911,"MEAN_MOTION_DOT":0.00039525,"MEAN_MOTION_DDOT":0},{"OBJECT_NAME":"HAWK-3A","OBJECT_ID":"2021-059CG","EPOCH":"2026-03-06T02:07:54.846336","MEAN_MOTION":15.61239739,"ECCENTRICITY":0.00053431,"INCLINATION":97.6797,"RA_OF_ASC_NODE":255.458,"ARG_OF_PERICENTER":352.8523,"MEAN_ANOMALY":7.2656,"EPHEMERIS_TYPE":0,"CLASSIFICATION_TYPE":"U","NORAD_CAT_ID":48957,"ELEMENT_SET_NO":999,"REV_AT_EPOCH":26172,"BSTAR":0.00043742024,"MEAN_MOTION_DOT":0.00037057,"MEAN_MOTION_DDOT":0},{"OBJECT_NAME":"HAWK-5C","OBJECT_ID":"2022-057Y","EPOCH":"2026-03-06T07:07:43.499136","MEAN_MOTION":15.47345369,"ECCENTRICITY":0.00056393,"INCLINATION":97.6451,"RA_OF_ASC_NODE":218.736,"ARG_OF_PERICENTER":87.0128,"MEAN_ANOMALY":273.1767,"EPHEMERIS_TYPE":0,"CLASSIFICATION_TYPE":"U","NORAD_CAT_ID":52754,"ELEMENT_SET_NO":999,"REV_AT_EPOCH":21041,"BSTAR":0.00045656881,"MEAN_MOTION_DOT":0.00023279,"MEAN_MOTION_DDOT":0},{"OBJECT_NAME":"HAWK-5B","OBJECT_ID":"2022-057AA","EPOCH":"2026-03-06T07:07:32.084832","MEAN_MOTION":15.47346856,"ECCENTRICITY":0.00056212,"INCLINATION":97.6454,"RA_OF_ASC_NODE":217.0762,"ARG_OF_PERICENTER":81.7348,"MEAN_ANOMALY":278.4539,"EPHEMERIS_TYPE":0,"CLASSIFICATION_TYPE":"U","NORAD_CAT_ID":52756,"ELEMENT_SET_NO":999,"REV_AT_EPOCH":21041,"BSTAR":0.000458467,"MEAN_MOTION_DOT":0.00023378,"MEAN_MOTION_DDOT":0},{"OBJECT_NAME":"HAWK-5A","OBJECT_ID":"2022-057AB","EPOCH":"2026-03-06T07:07:08.019840","MEAN_MOTION":15.47347022,"ECCENTRICITY":0.00060289,"INCLINATION":97.6454,"RA_OF_ASC_NODE":217.9099,"ARG_OF_PERICENTER":83.9278,"MEAN_ANOMALY":276.2658,"EPHEMERIS_TYPE":0,"CLASSIFICATION_TYPE":"U","NORAD_CAT_ID":52757,"ELEMENT_SET_NO":999,"REV_AT_EPOCH":21041,"BSTAR":0.00046345611,"MEAN_MOTION_DOT":0.00023636,"MEAN_MOTION_DDOT":0},{"OBJECT_NAME":"HAWK-6B","OBJECT_ID":"2023-011A","EPOCH":"2026-03-05T20:48:32.871168","MEAN_MOTION":15.21845792,"ECCENTRICITY":0.00025927,"INCLINATION":40.5118,"RA_OF_ASC_NODE":234.2356,"ARG_OF_PERICENTER":357.4067,"MEAN_ANOMALY":2.6728,"EPHEMERIS_TYPE":0,"CLASSIFICATION_TYPE":"U","NORAD_CAT_ID":55324,"ELEMENT_SET_NO":999,"REV_AT_EPOCH":17209,"BSTAR":0.00034105572,"MEAN_MOTION_DOT":7.729e-5,"MEAN_MOTION_DDOT":0},{"OBJECT_NAME":"HAWK-6C","OBJECT_ID":"2023-011C","EPOCH":"2026-03-05T22:22:11.312832","MEAN_MOTION":15.21837991,"ECCENTRICITY":0.0003048,"INCLINATION":40.4831,"RA_OF_ASC_NODE":230.7332,"ARG_OF_PERICENTER":344.475,"MEAN_ANOMALY":15.5965,"EPHEMERIS_TYPE":0,"CLASSIFICATION_TYPE":"U","NORAD_CAT_ID":55326,"ELEMENT_SET_NO":999,"REV_AT_EPOCH":17211,"BSTAR":0.00031675121,"MEAN_MOTION_DOT":7.163e-5,"MEAN_MOTION_DDOT":0}]
