TECHNOSAT               
1 42829U 17042E   26065.23527557  .00005057  00000+0  36623-3 0  9993
2 42829  97.4151 226.9329 0019779  86.5675 273.7813 15.04250058471224
FLYING LAPTOP           
1 42831U 17042G   26065.31036488  .00003389  00000+0  27262-3 0  9998
2 42831  97.4264 225.1346 0018832 106.3478 253.9819 15.00488681471028
HAWK-A                  
1 43765U 18099H   26065.12883763  .00007733  00000+0  32499-3 0  9998
2 43765  97.4056 118.7423 0034341 288.6008  71.1500 15.23159876397405
HAWK-B                  
1 43794U 18099AN  26065.09682656  .00007803  00000+0  34558-3 0  9990
2 43794  97.4104 118.3322 0031513 306.5962  53.2375 15.21466985397357
HAWK-C                  
1 43799U 18099AT  26065.13253289  .00008938  00000+0  33898-3 0  9992
2 43799  97.4032 119.1729 0040476 290.4794  69.2101 15.26323772398181
SALSAT                  
1 46495U 20068K   26064.94066432  .00011056  00000+0  40601-3 0  9992
2 46495  97.8854  61.8531 0008538 312.5830  47.4688 15.28092628299584
HAWK-2C                 
1 47502U 21006CT  26065.08647923  .00007634  00000+0  24007-3 0  9990
2 47502  97.2418 111.4790 0006586 197.2619 162.8401 15.33219899283694
HAWK-2A                 
1 47505U 21006CW  26065.09003281  .00007890  00000+0  24793-3 0  9993
2 47505  97.2461 112.0989 0006082 200.7103 159.3894 15.33238017283691
HAWK-2B                 
1 47508U 21006CZ  26065.08683353  .00008135  00000+0  25571-3 0  9997
2 47508  97.2334 110.6010 0006672 198.7979 161.3018 15.33214288283699
HAWK-3B                 
1 48931U 21059BE  26065.08924075  .00036910  00000+0  43579-3 0  9995
2 48931  97.6715 252.6749 0005299 352.2097   7.9077 15.61234728261727
HAWK-3C                 
1 48948U 21059BX  26065.28128879  .00039525  00000+0  46609-3 0  9995
2 48948  97.6862 258.3753 0005749 352.6085   7.5086 15.61250200261759
HAWK-3A                 
1 48957U 21059CG  26065.08882924  .00037057  00000+0  43742-3 0  9994
2 48957  97.6797 255.4580 0005343 352.8523   7.2656 15.61239739261722
HAWK-5C                 
1 52754U 22057Y   26065.29703124  .00023279  00000+0  45657-3 0  9998
2 52754  97.6451 218.7360 0005639  87.0128 273.1767 15.47345369210411
HAWK-5B                 
1 52756U 22057AA  26065.29689913  .00023378  00000+0  45847-3 0  9990
2 52756  97.6454 217.0762 0005621  81.7348 278.4539 15.47346856210417
HAWK-5A                 
1 52757U 22057AB  26065.29662060  .00023636  00000+0  46346-3 0  9997
2 52757  97.6454 217.9099 0006028  83.9278 276.2658 15.47347022210412
HAWK-6B                 
1 55324U 23011A   26064.86704712  .00007729  00000+0  34106-3 0  9990
2 55324  40.5118 234.2356 0002592 357.4067   2.6728 15.21845792172093
HAWK-6C                 
1 55326U 23011C   26064.93207538  .00007163  00000+0  31675-3 0  9994
2 55326  40.4831 230.7332 0003048 344.4750  15.5965 15.21837991172114
